{"type": "FeatureCollection", "features": [{"type": "Feature", "properties": {"name": "Serbia", "shapeName": "Serbia", "UN": true}, "geometry": {"type": "Polygon", "coordinates": [[[20.71731, 41.84711], [20.59023, 41.85541], [20.52295, 42.21787], [20.28374, 42.32025], [20.0707, 42.58863], [20.25758, 42.81275], [20.3398, 42.89852], [19.95857, 43.10604], [19.63, 43.21378], [19.48389, 43.35229], [19.21852, 43.52384], [19.454, 43.5681], [19.59976, 44.03847], [19.11761, 44.42307], [19.36803, 44.863], [19.00548, 44.86023], [19.390476, 45.236516], [19.072769, 45.521511], [18.82982, 45.90888], [19.596045, 46.17173], [20.220192, 46.127469], [20.762175, 45.734573], [20.874313, 45.416375], [21.483526, 45.18117], [21.562023, 44.768947], [22.145088, 44.478422], [22.459022, 44.702517], [22.705726, 44.578003], [22.474008, 44.409228], [22.65715, 44.234923], [22.410446, 44.008063], [22.500157, 43.642814], [22.986019, 43.211161], [22.604801, 42.898519], [22.436595, 42.580321], [22.545012, 42.461362], [22.380526, 42.32026], [21.91708, 42.30364], [21.576636, 42.245224], [21.3527, 42.2068], [20.76216, 42.05186], [20.71731, 41.84711]]]}}]}